OBJECT_NAME,OBJECT_ID,EPOCH,MEAN_MOTION,ECCENTRICITY,INCLINATION,RA_OF_ASC_NODE,ARG_OF_PERICENTER,MEAN_ANOMALY,EPHEMERIS_TYPE,CLASSIFICATION_TYPE,NORAD_CAT_ID,ELEMENT_SET_NO,REV_AT_EPOCH,BSTAR,MEAN_MOTION_DOT,MEAN_MOTION_DDOT
GSAT-18,2016-060A,2026-06-13T14:48:32.479776,1.00270755,.00054619,0.0531,104.4552,327.5993,125.9938,0,U,41793,999,3549,0,-.66E-6,0
SKY MUSTER 2 (NBN1B),2016-060B,2026-06-13T13:50:31.509312,1.00269197,.00013048,0.0170,326.4790,114.2189,173.6298,0,U,41794,999,3548,0,-.233E-5,0
HIMAWARI-9,2016-064A,2026-06-13T15:48:04.100256,1.00270237,.00008054,0.0493,148.2974,350.9768,140.4878,0,U,41836,999,3517,0,-.264E-5,0
SHIJIAN-17 (SJ-17),2016-065A,2026-06-13T12:16:18.473088,0.99853747,.0001727,5.7432,72.6480,28.8892,225.6743,0,U,41838,999,3516,0,.55E-6,0
GOES 16,2016-071A,2026-06-13T14:22:00.303168,1.00270046,.00002133,0.3316,85.5350,288.2775,358.9115,0,U,41866,999,3506,0,-.8E-6,0
TIANLIAN 1-04,2016-072A,2026-06-13T13:59:39.943680,1.00270797,.00421763,0.8588,82.9422,89.7539,115.9102,0,U,41869,999,3526,0,.41E-6,0
WGS F8 (USA 272),2016-075A,2026-06-13T13:20:38.627232,1.00265532,.00001192,0.0397,45.7368,258.6529,307.4553,0,U,41879,999,3478,0,0,0
FENGYUN 4A,2016-077A,2026-06-13T15:27:10.310112,1.00270528,.00086469,2.3123,80.3284,152.7496,24.4534,0,U,41882,999,3489,0,-.347E-5,0
ECHOSTAR 19,2016-079A,2026-06-13T14:24:07.598880,1.00269727,.00011348,0.0144,22.5961,51.9064,306.3400,0,U,41893,999,3466,0,-.127E-5,0
JCSAT-110A (JCSAT-15),2016-082A,2026-06-13T15:52:55.526592,1.00270318,.00006007,0.0171,354.2277,147.4318,108.6139,0,U,41903,999,3472,0,-.34E-5,0
STAR ONE D1,2016-082B,2026-06-13T12:45:12.392352,1.00271853,.00022823,0.0146,39.4008,55.0093,274.7432,0,U,41904,999,3473,0,-.2E-5,0
TJS-2,2017-001A,2026-06-13T15:10:35.476320,1.00272880,.00004972,0.8240,85.3707,45.2457,65.5436,0,U,41911,999,3468,0,.4E-7,0
SBIRS GEO-4 (USA 273),2017-004A,2026-06-13T14:57:45.058752,1.00271456,.00018913,2.2360,43.1761,32.8217,71.2768,0,U,41937,999,3456,0,.133E-5,0
HISPASAT 36W-1,2017-006A,2026-06-13T09:33:34.949952,1.00275230,.00010141,0.0086,299.3667,159.0352,270.7207,0,U,41942,999,3420,0,-.232E-5,0
TELKOM 3S,2017-007A,2026-06-13T15:25:25.476672,1.00272586,.00020722,0.0166,23.3850,53.4315,174.4981,0,U,41944,999,3410,0,-.352E-5,0
INTELSAT 32E (IS-32E),2017-007B,2026-06-13T11:13:57.485280,1.00274763,.000067,0.0044,43.5837,270.6035,72.9130,0,U,41945,999,3418,0,-.257E-5,0
ECHOSTAR 23,2017-014A,2026-06-13T14:20:30.446304,1.00267798,.00020007,0.0152,322.0905,117.9339,287.1196,0,U,42070,999,3388,0,-.45E-6,0
WGS F9 (USA 275),2017-016A,2026-06-12T16:33:47.983680,1.00270053,.00002221,0.0138,310.2654,359.2743,187.9245,0,U,42075,999,3385,0,-.82E-6,0
SES-10,2017-017A,2026-06-13T12:49:49.448640,1.00267305,.00025282,0.0202,30.5849,55.1637,301.6632,0,U,42432,999,3371,0,-.261E-5,0
KOREASAT 7,2017-023A,2026-06-13T15:24:55.525248,1.00272469,.00007819,0.0219,19.9990,58.3586,170.7218,0,U,42691,999,3333,0,-.351E-5,0
SGDC,2017-023B,2026-06-13T11:32:21.539040,1.00272339,.00024868,0.0426,75.9524,15.6045,268.4782,0,U,42692,999,3336,0,-.238E-5,0
GSAT-9,2017-024A,2026-06-13T15:43:45.868800,1.00265310,.00025599,0.0340,61.3864,25.0534,148.8599,0,U,42695,999,3326,0,0,0
INMARSAT 5-F4,2017-025A,2026-06-13T01:26:39.012000,1.00272793,.00004452,0.0187,14.9513,345.1555,339.4217,0,U,42698,999,3323,0,.88E-6,0
SES-15,2017-026A,2026-06-13T14:15:00.972864,1.00267751,.00003855,0.0210,331.3109,61.1940,313.9944,0,U,42709,999,739,0,.71E-6,0
QZS-2 (MICHIBIKI-2),2017-028A,2026-06-09T12:56:43.810944,1.00285994,.07605811,39.4388,243.2674,269.1776,81.0235,0,U,42738,999,754,0,-.147E-5,0
VIASAT-2,2017-029A,2026-06-13T12:49:12.008928,1.00271945,.00001446,0.0179,296.9269,80.6942,6.6387,0,U,42740,999,3316,0,-.254E-5,0
EUTELSAT 172B,2017-029B,2026-06-13T13:58:17.575968,1.00274220,.00001487,0.0461,143.8586,45.0590,94.5738,0,U,42741,999,3370,0,.6E-7,0
GSAT-19,2017-031A,2026-06-13T11:40:10.082784,1.00273157,.00071311,0.0477,265.9400,160.0406,58.7187,0,U,42747,999,3311,0,.137E-5,0
ECHOSTAR 21,2017-032A,2026-06-13T14:54:45.345888,1.00272128,.00020436,1.7713,355.4609,94.6785,45.7494,0,U,42749,999,3306,0,.76E-6,0
BULGARIASAT-1,2017-038A,2026-06-13T01:11:03.007968,1.00269518,.00031809,0.0125,319.4488,137.1834,184.3996,0,U,42801,999,3280,0,.24E-6,0
HELLAS-SAT 3,2017-040A,2026-06-13T15:02:59.555616,1.00269369,.0004758,0.0414,34.4066,17.6441,114.6287,0,U,42814,999,3277,0,.163E-5,0
