GSAT-18                 
1 41793U 16060A   26164.61704259 -.00000066  00000+0  00000+0 0  9991
2 41793   0.0531 104.4552 0005461 327.5993 125.9938  1.00270755 35495
SKY MUSTER 2 (NBN1B)    
1 41794U 16060B   26164.57675358 -.00000233  00000+0  00000+0 0  9990
2 41794   0.0170 326.4790 0001304 114.2189 173.6298  1.00269197 35481
HIMAWARI-9              
1 41836U 16064A   26164.65838079 -.00000264  00000+0  00000+0 0  9995
2 41836   0.0493 148.2974 0000805 350.9768 140.4878  1.00270237 35176
SHIJIAN-17 (SJ-17)      
1 41838U 16065A   26164.51132492  .00000055  00000+0  00000+0 0  9996
2 41838   5.7432  72.6480 0001727  28.8892 225.6743  0.99853747 35164
GOES 16                 
1 41866U 16071A   26164.59861462 -.00000080  00000+0  00000+0 0  9997
2 41866   0.3316  85.5350 0000213 288.2775 358.9115  1.00270046 35067
TIANLIAN 1-04           
1 41869U 16072A   26164.58310120  .00000041  00000+0  00000+0 0  9996
2 41869   0.8588  82.9422 0042176  89.7539 115.9102  1.00270797 35265
WGS F8 (USA 272)        
1 41879U 16075A   26164.55600263  .00000000  00000+0  00000+0 0  9992
2 41879   0.0397  45.7368 0000119 258.6529 307.4553  1.00265532 34784
FENGYUN 4A              
1 41882U 16077A   26164.64386933 -.00000347  00000+0  00000+0 0  9998
2 41882   2.3123  80.3284 0008646 152.7496  24.4534  1.00270528 34890
ECHOSTAR 19             
1 41893U 16079A   26164.60008795 -.00000127  00000+0  00000+0 0  9991
2 41893   0.0144  22.5961 0001134  51.9064 306.3400  1.00269727 34664
JCSAT-110A (JCSAT-15)   
1 41903U 16082A   26164.66175378 -.00000340  00000+0  00000+0 0  9992
2 41903   0.0171 354.2277 0000600 147.4318 108.6139  1.00270318 34728
STAR ONE D1             
1 41904U 16082B   26164.53139343 -.00000200  00000+0  00000+0 0  9996
2 41904   0.0146  39.4008 0002282  55.0093 274.7432  1.00271853 34734
TJS-2                   
1 41911U 17001A   26164.63235505  .00000004  00000+0  00000+0 0  9995
2 41911   0.8240  85.3707 0000497  45.2457  65.5436  1.00272880 34687
SBIRS GEO-4 (USA 273)   
1 41937U 17004A   26164.62343818  .00000133  00000+0  00000+0 0  9995
2 41937   2.2360  43.1761 0001891  32.8217  71.2768  1.00271456 34568
HISPASAT 36W-1          
1 41942U 17006A   26164.39832118 -.00000232  00000+0  00000+0 0  9994
2 41942   0.0086 299.3667 0001014 159.0352 270.7207  1.00275230 34203
TELKOM 3S               
1 41944U 17007A   26164.64265598 -.00000352  00000+0  00000+0 0  9990
2 41944   0.0166  23.3850 0002072  53.4315 174.4981  1.00272586 34103
INTELSAT 32E (IS-32E)   
1 41945U 17007B   26164.46802645 -.00000257  00000+0  00000+0 0  9995
2 41945   0.0044  43.5837 0000670 270.6035  72.9130  1.00274763 34187
ECHOSTAR 23             
1 42070U 17014A   26164.59757461 -.00000045  00000+0  00000+0 0  9997
2 42070   0.0152 322.0905 0002000 117.9339 287.1196  1.00267798 33885
WGS F9 (USA 275)        
1 42075U 17016A   26163.69013870 -.00000082  00000+0  00000+0 0  9994
2 42075   0.0138 310.2654 0000222 359.2743 187.9245  1.00270053 33855
SES-10                  
1 42432U 17017A   26164.53460010 -.00000261  00000+0  00000+0 0  9997
2 42432   0.0202  30.5849 0002528  55.1637 301.6632  1.00267305 33713
KOREASAT 7              
1 42691U 17023A   26164.64230932 -.00000351  00000+0  00000+0 0  9991
2 42691   0.0219  19.9990 0000781  58.3586 170.7218  1.00272469 33333
SGDC                    
1 42692U 17023B   26164.48080485 -.00000238  00000+0  00000+0 0  9994
2 42692   0.0426  75.9524 0002486  15.6045 268.4782  1.00272339 33369
GSAT-9                  
1 42695U 17024A   26164.65539200  .00000000  00000+0  00000+0 0  9997
2 42695   0.0340  61.3864 0002559  25.0534 148.8599  1.00265310 33269
INMARSAT 5-F4           
1 42698U 17025A   26164.06017375  .00000088  00000+0  00000+0 0  9996
2 42698   0.0187  14.9513 0000445 345.1555 339.4217  1.00272793 33232
SES-15                  
1 42709U 17026A   26164.59376126  .00000071  00000+0  00000+0 0  9992
2 42709   0.0210 331.3109 0000385  61.1940 313.9944  1.00267751  7395
QZS-2 (MICHIBIKI-2)     
1 42738U 17028A   26160.53939596 -.00000147  00000+0  00000+0 0  9997
2 42738  39.4388 243.2674 0760581 269.1776  81.0235  1.00285994  7547
VIASAT-2                
1 42740U 17029A   26164.53416677 -.00000254  00000+0  00000+0 0  9994
2 42740   0.0179 296.9269 0000144  80.6942   6.6387  1.00271945 33169
EUTELSAT 172B           
1 42741U 17029B   26164.58214787  .00000006  00000+0  00000+0 0  9992
2 42741   0.0461 143.8586 0000148  45.0590  94.5738  1.00274220 33709
GSAT-19                 
1 42747U 17031A   26164.48622781  .00000137  00000+0  00000+0 0  9992
2 42747   0.0477 265.9400 0007131 160.0406  58.7187  1.00273157 33119
ECHOSTAR 21             
1 42749U 17032A   26164.62135817  .00000076  00000+0  00000+0 0  9992
2 42749   1.7713 355.4609 0002043  94.6785  45.7494  1.00272128 33065
BULGARIASAT-1           
1 42801U 17038A   26164.04934037  .00000024  00000+0  00000+0 0  9997
2 42801   0.0125 319.4488 0003180 137.1834 184.3996  1.00269518 32806
HELLAS-SAT 3            
1 42814U 17040A   26164.62707819  .00000163  00000+0  00000+0 0  9998
2 42814   0.0414  34.4066 0004758  17.6441 114.6287  1.00269369 32774
